{"type": "FeatureCollection", "features": [{"type": "Feature", "properties": {"norad_id": 66376, "name": "SHIYAN-32 01", "group": "last-30-days", "lat": 25.815085341359296, "lon": -2.558573076858933, "alt_km": 439.95786896836944, "timestamp": "2025-12-08T08:58:59.555130+00:00", "meta": {"OBJECT_NAME": "SHIYAN-32 01", "OBJECT_ID": "2025-255A", "EPOCH": "2025-12-07T23:01:13.547712", "MEAN_MOTION": 15.42552606, "ECCENTRICITY": 0.00135605, "INCLINATION": 52.9949, "RA_OF_ASC_NODE": 200.8129, "ARG_OF_PERICENTER": 26.906, "MEAN_ANOMALY": 333.2644, "EPHEMERIS_TYPE": 0, "CLASSIFICATION_TYPE": "U", "NORAD_CAT_ID": 66376, "ELEMENT_SET_NO": 999, "REV_AT_EPOCH": 461, "BSTAR": 0.0005494359, "MEAN_MOTION_DOT": 0.0002396, "MEAN_MOTION_DDOT": 0}, "tle": {"line1": "1 66376U 25255A   25341.95918458  .00023960  00000+0  54944-3 0  9999", "line2": "2 66376  52.9949 200.8129 0013560  26.9060 333.2644 15.42552606  4610"}}, "geometry": {"type": "Point", "coordinates": [-2.558573076858933, 25.815085341359296]}}, {"type": "Feature", "properties": {"norad_id": 66377, "name": "CZ-11 DEB", "group": "last-30-days", "lat": -42.45974356683945, "lon": 62.299989643196525, "alt_km": 446.5094890126811, "timestamp": "2025-12-08T08:58:59.555185+00:00", "meta": {"OBJECT_NAME": "CZ-11 DEB", "OBJECT_ID": "2025-255B", "EPOCH": "2025-12-07T22:38:14.474112", "MEAN_MOTION": 15.44053039, "ECCENTRICITY": 0.00138651, "INCLINATION": 52.995, "RA_OF_ASC_NODE": 200.7116, "ARG_OF_PERICENTER": 24.2648, "MEAN_ANOMALY": 335.9007, "EPHEMERIS_TYPE": 0, "CLASSIFICATION_TYPE": "U", "NORAD_CAT_ID": 66377, "ELEMENT_SET_NO": 999, "REV_AT_EPOCH": 447, "BSTAR": 0.00095681707, "MEAN_MOTION_DOT": 0.00044363, "MEAN_MOTION_DDOT": 0}, "tle": {"line1": "1 66377U 25255B   25341.94322308  .00044363  00000+0  95682-3 0  9996", "line2": "2 66377  52.9950 200.7116 0013865  24.2648 335.9007 15.44053039  4473"}}, "geometry": {"type": "Point", "coordinates": [62.299989643196525, -42.45974356683945]}}, {"type": "Feature", "properties": {"norad_id": 66378, "name": "SHIYAN-32 02", "group": "last-30-days", "lat": -52.394512396225714, "lon": 120.26058825165478, "alt_km": 438.8601748186784, "timestamp": "2025-12-08T08:58:59.555202+00:00", "meta": {"OBJECT_NAME": "SHIYAN-32 02", "OBJECT_ID": "2025-255C", "EPOCH": "2025-12-07T22:28:16.644000", "MEAN_MOTION": 15.4470061, "ECCENTRICITY": 0.00121696, "INCLINATION": 52.9923, "RA_OF_ASC_NODE": 200.6672, "ARG_OF_PERICENTER": 19.2779, "MEAN_ANOMALY": 340.8684, "EPHEMERIS_TYPE": 0, "CLASSIFICATION_TYPE": "U", "NORAD_CAT_ID": 66378, "ELEMENT_SET_NO": 999, "REV_AT_EPOCH": 447, "BSTAR": 0.00092541144, "MEAN_MOTION_DOT": 0.00043816, "MEAN_MOTION_DDOT": 0}, "tle": {"line1": "1 66378U 25255C   25341.93630375  .00043816  00000+0  92541-3 0  9995", "line2": "2 66378  52.9923 200.6672 0012169  19.2779 340.8684 15.44700610  4475"}}, "geometry": {"type": "Point", "coordinates": [120.26058825165478, -52.394512396225714]}}, {"type": "Feature", "properties": {"norad_id": 66379, "name": "SHIYAN-32 03", "group": "last-30-days", "lat": -3.568573869114581, "lon": 21.46250647411995, "alt_km": 448.5956093589275, "timestamp": "2025-12-08T08:58:59.555215+00:00", "meta": {"OBJECT_NAME": "SHIYAN-32 03", "OBJECT_ID": "2025-255D", "EPOCH": "2025-12-07T22:51:37.091232", "MEAN_MOTION": 15.42870497, "ECCENTRICITY": 0.00156437, "INCLINATION": 52.9957, "RA_OF_ASC_NODE": 200.7721, "ARG_OF_PERICENTER": 27.96, "MEAN_ANOMALY": 332.2242, "EPHEMERIS_TYPE": 0, "CLASSIFICATION_TYPE": "U", "NORAD_CAT_ID": 66379, "ELEMENT_SET_NO": 999, "REV_AT_EPOCH": 449, "BSTAR": 0.00043915955, "MEAN_MOTION_DOT": 0.00019283, "MEAN_MOTION_DDOT": 0}, "tle": {"line1": "1 66379U 25255D   25341.95251263  .00019283  00000+0  43916-3 0  9996", "line2": "2 66379  52.9957 200.7721 0015643  27.9600 332.2242 15.42870497  4494"}}, "geometry": {"type": "Point", "coordinates": [21.46250647411995, -3.568573869114581]}}, {"type": "Feature", "properties": {"norad_id": 66380, "name": "STARLINK-35139", "group": "last-30-days", "lat": 49.63443791382299, "lon": -12.894557144597856, "alt_km": 438.97559441431076, "timestamp": "2025-12-08T08:58:59.555228+00:00", "meta": {"OBJECT_NAME": "STARLINK-35139", "OBJECT_ID": "2025-257A", "EPOCH": "2025-12-07T20:12:29.301120", "MEAN_MOTION": 15.39665589, "ECCENTRICITY": 0.00020108, "INCLINATION": 53.1607, "RA_OF_ASC_NODE": 287.7343, "ARG_OF_PERICENTER": 97.2335, "MEAN_ANOMALY": 262.8899, "EPHEMERIS_TYPE": 0, "CLASSIFICATION_TYPE": "U", "NORAD_CAT_ID": 66380, "ELEMENT_SET_NO": 999, "REV_AT_EPOCH": 555, "BSTAR": 0.0018805803, "MEAN_MOTION_DOT": 0.00075687, "MEAN_MOTION_DDOT": 0}, "tle": {"line1": "1 66380U 25257A   25341.84200580  .00075687  00000+0  18806-2 0  9993", "line2": "2 66380  53.1607 287.7343 0002010  97.2335 262.8899 15.39665589  5559"}}, "geometry": {"type": "Point", "coordinates": [-12.894557144597856, 49.63443791382299]}}, {"type": "Feature", "properties": {"norad_id": 66381, "name": "STARLINK-35158", "group": "last-30-days", "lat": 50.33828122391324, "lon": -10.056388866479407, "alt_km": 439.28026199782926, "timestamp": "2025-12-08T08:58:59.555240+00:00", "meta": {"OBJECT_NAME": "STARLINK-35158", "OBJECT_ID": "2025-257B", "EPOCH": "2025-12-07T13:58:05.895552", "MEAN_MOTION": 15.39653377, "ECCENTRICITY": 0.00011468, "INCLINATION": 53.1601, "RA_OF_ASC_NODE": 288.9542, "ARG_OF_PERICENTER": 89.3093, "MEAN_ANOMALY": 270.8044, "EPHEMERIS_TYPE": 0, "CLASSIFICATION_TYPE": "U", "NORAD_CAT_ID": 66381, "ELEMENT_SET_NO": 999, "REV_AT_EPOCH": 557, "BSTAR": 0.0018676626, "MEAN_MOTION_DOT": 0.00075127, "MEAN_MOTION_DDOT": 0}, "tle": {"line1": "1 66381U 25257B   25341.58201268  .00075127  00000+0  18677-2 0  9994", "line2": "2 66381  53.1601 288.9542 0001146  89.3093 270.8044 15.39653377  5575"}}, "geometry": {"type": "Point", "coordinates": [-10.056388866479407, 50.33828122391324]}}, {"type": "Feature", "properties": {"norad_id": 66382, "name": "STARLINK-35639", "group": "last-30-days", "lat": 52.408419275270596, "lon": 28.31605200930359, "alt_km": 439.05061896903226, "timestamp": "2025-12-08T08:58:59.555254+00:00", "meta": {"OBJECT_NAME": "STARLINK-35639", "OBJECT_ID": "2025-257C", "EPOCH": "2025-12-07T13:51:53.651520", "MEAN_MOTION": 15.39603002, "ECCENTRICITY": 0.00014894, "INCLINATION": 53.1608, "RA_OF_ASC_NODE": 288.9249, "ARG_OF_PERICENTER": 64.5533, "MEAN_ANOMALY": 295.5626, "EPHEMERIS_TYPE": 0, "CLASSIFICATION_TYPE": "U", "NORAD_CAT_ID": 66382, "ELEMENT_SET_NO": 999, "REV_AT_EPOCH": 557, "BSTAR": 0.001713752, "MEAN_MOTION_DOT": 0.00068731, "MEAN_MOTION_DDOT": 0}, "tle": {"line1": "1 66382U 25257C   25341.57770430  .00068731  00000+0  17138-2 0  9990", "line2": "2 66382  53.1608 288.9249 0001489  64.5533 295.5626 15.39603002  5571"}}, "geometry": {"type": "Point", "coordinates": [28.31605200930359, 52.408419275270596]}}, {"type": "Feature", "properties": {"norad_id": 66383, "name": "STARLINK-35690", "group": "last-30-days", "lat": 41.64879012305605, "lon": 63.304569926450576, "alt_km": 440.69219872665417, "timestamp": "2025-12-08T08:58:59.555267+00:00", "meta": {"OBJECT_NAME": "STARLINK-35690", "OBJECT_ID": "2025-257D", "EPOCH": "2025-12-07T13:45:12.416832", "MEAN_MOTION": 15.3962701, "ECCENTRICITY": 0.00010275, "INCLINATION": 53.1615, "RA_OF_ASC_NODE": 288.8969, "ARG_OF_PERICENTER": 108.0058, "MEAN_ANOMALY": 252.1059, "EPHEMERIS_TYPE": 0, "CLASSIFICATION_TYPE": "U", "NORAD_CAT_ID": 66383, "ELEMENT_SET_NO": 999, "REV_AT_EPOCH": 557, "BSTAR": 0.0018607579, "MEAN_MOTION_DOT": 0.00074779, "MEAN_MOTION_DDOT": 0}, "tle": {"line1": "1 66383U 25257D   25341.57306038  .00074779  00000+0  18608-2 0  9992", "line2": "2 66383  53.1615 288.8969 0001027 108.0058 252.1059 15.39627010  5576"}}, "geometry": {"type": "Point", "coordinates": [63.304569926450576, 41.64879012305605]}}, {"type": "Feature", "properties": {"norad_id": 66384, "name": "STARLINK-35662", "group": "last-30-days", "lat": 40.54562282451618, "lon": 65.21839883652974, "alt_km": 440.57950659060407, "timestamp": "2025-12-08T08:58:59.555278+00:00", "meta": {"OBJECT_NAME": "STARLINK-35662", "OBJECT_ID": "2025-257E", "EPOCH": "2025-12-07T19:58:38.215200", "MEAN_MOTION": 15.39655953, "ECCENTRICITY": 0.00018124, "INCLINATION": 53.1562, "RA_OF_ASC_NODE": 287.6724, "ARG_OF_PERICENTER": 87.4795, "MEAN_ANOMALY": 272.6417, "EPHEMERIS_TYPE": 0, "CLASSIFICATION_TYPE": "U", "NORAD_CAT_ID": 66384, "ELEMENT_SET_NO": 999, "REV_AT_EPOCH": 561, "BSTAR": 0.0018478528, "MEAN_MOTION_DOT": 0.00074326, "MEAN_MOTION_DDOT": 0}, "tle": {"line1": "1 66384U 25257E   25341.83238675  .00074326  00000+0  18479-2 0  9997", "line2": "2 66384  53.1562 287.6724 0001812  87.4795 272.6417 15.39655953  5611"}}, "geometry": {"type": "Point", "coordinates": [65.21839883652974, 40.54562282451618]}}, {"type": "Feature", "properties": {"norad_id": 66385, "name": "STARLINK-35659", "group": "last-30-days", "lat": 52.01125034249676, "lon": 31.451000431359777, "alt_km": 438.7495361845695, "timestamp": "2025-12-08T08:58:59.555289+00:00", "meta": {"OBJECT_NAME": "STARLINK-35659", "OBJECT_ID": "2025-257F", "EPOCH": "2025-12-07T13:51:25.241472", "MEAN_MOTION": 15.39642413, "ECCENTRICITY": 0.00015924, "INCLINATION": 53.1625, "RA_OF_ASC_NODE": 288.9256, "ARG_OF_PERICENTER": 84.5519, "MEAN_ANOMALY": 275.5668, "EPHEMERIS_TYPE": 0, "CLASSIFICATION_TYPE": "U", "NORAD_CAT_ID": 66385, "ELEMENT_SET_NO": 999, "REV_AT_EPOCH": 557, "BSTAR": 0.0019773703, "MEAN_MOTION_DOT": 0.00079582, "MEAN_MOTION_DDOT": 0}, "tle": {"line1": "1 66385U 25257F   25341.57737548  .00079582  00000+0  19774-2 0  9990", "line2": "2 66385  53.1625 288.9256 0001592  84.5519 275.5668 15.39642413  5575"}}, "geometry": {"type": "Point", "coordinates": [31.451000431359777, 52.01125034249676]}}]}